[
    {
        "Altitude(m)": 612502.2523765733,
        "Argument of Periapsis(deg)": 0.0,
        "Eccentricity": 0.0,
        "Inclination(deg)": 60.0,
        "Latitude(deg)": -28.136160059177165,
        "Longitude(deg)": -82.85175198161119,
        "Mean Anomaly(deg)": -32.7273,
        "RAAN(deg)": 35.0,
        "Satellite Name": "Test1 174",
        "Satellite Number": 174,
        "Semi-Major Axis(m)": 6980739.136638005,
        "Time(s)": 0
    },
    {
        "Altitude(m)": 612308.6995675339,
        "Argument of Periapsis(deg)": 0.00010418945913296404,
        "Eccentricity": 0.0,
        "Inclination(deg)": 60.0,
        "Latitude(deg)": -27.62321539342559,
        "Longitude(deg)": -82.49827720536815,
        "Mean Anomaly(deg)": -32.10719385453816,
        "RAAN(deg)": 34.99957995086025,
        "Satellite Name": "Test1 174",
        "Satellite Number": 174,
        "Semi-Major Axis(m)": 6980739.136638005,
        "Time(s)": 10
    }
]